STARLINK-2530           
1 48303U 21036AD  26068.66670139 -.00013026  00000+0 -42876-3 0  9993
2 48303  53.1604  88.5428 0001325  82.4327 322.2393 15.30175273  5802
TEVEL2-1                
1 63217U 25052H   26068.64782323  .00020683  00000+0  70600-3 0  9994
2 63217  97.3991 324.7682 0004767 104.8919 255.2849 15.30341923 54855
